{"type": "FeatureCollection", "features": [ {"type": "Feature", "properties": {"norad_id": 41556, "name": "ZIYUAN 3-02 (ZY 3-02)", "group": "resource", "lat": -20.894398794131497, "lon": 71.49158634039934, "alt_km": 511.7465996376068, "timestamp": "2025-12-20T14:38:01.615836+00:00", "meta": {"OBJECT_NAME": "ZIYUAN 3-02 (ZY 3-02)", "OBJECT_ID": "2016-033A", "EPOCH": "2025-12-20T06:49:57.310176", "MEAN_MOTION": 15.21155292, "ECCENTRICITY": 0.00110336, "INCLINATION": 97.4039, "RA_OF_ASC_NODE": 68.3266, "ARG_OF_PERICENTER": 217.9081, "MEAN_ANOMALY": 142.1379, "EPHEMERIS_TYPE": 0, "CLASSIFICATION_TYPE": "U", "NORAD_CAT_ID": 41556, "ELEMENT_SET_NO": 999, "REV_AT_EPOCH": 53078, "BSTAR": 0.00023221728, "MEAN_MOTION_DOT": 5.111e-05, "MEAN_MOTION_DDOT": 0}, "tle": {"line1": "1 41556U 16033A   25354.28469109  .00005111  00000+0  23222-3 0  9993", "line2": "2 41556  97.4039  68.3266 0011033 217.9081 142.1379 15.21155292530785"}}, "geometry": {"type": "Point", "coordinates": [71.49158634039934, -20.894398794131497]}}, {"type": "Feature", "properties": {"norad_id": 41599, "name": "CARTOSAT-2C", "group": "resource", "lat": -43.30380275156924, "lon": -135.32998669016615, "alt_km": 522.5952749068747, "timestamp": "2025-12-20T14:38:01.615846+00:00", "meta": {"OBJECT_NAME": "CARTOSAT-2C", "OBJECT_ID": "2016-040A", "EPOCH": "2025-12-20T07:19:45.209568", "MEAN_MOTION": 15.19180308, "ECCENTRICITY": 0.00110355, "INCLINATION": 97.4762, "RA_OF_ASC_NODE": 51.4784, "ARG_OF_PERICENTER": 39.4646, "MEAN_ANOMALY": 320.739, "EPHEMERIS_TYPE": 0, "CLASSIFICATION_TYPE": "U", "NORAD_CAT_ID": 41599, "ELEMENT_SET_NO": 999, "REV_AT_EPOCH": 52655, "BSTAR": 0.00021915656, "MEAN_MOTION_DOT": 4.548e-05, "MEAN_MOTION_DDOT": 0}, "tle": {"line1": "1 41599U 16040A   25354.30538437  .00004548  00000+0  21916-3 0  9993", "line2": "2 41599  97.4762  51.4784 0011035  39.4646 320.7390 15.19180308526559"}}, "geometry": {"type": "Point", "coordinates": [-135.32998669016615, -43.30380275156924]}}, {"type": "Feature", "properties": {"norad_id": 41601, "name": "SKYSAT-C1", "group": "resource", "lat": -60.31767805856657, "lon": 43.59504053303401, "alt_km": 474.1706820242389, "timestamp": "2025-12-20T14:38:01.615856+00:00", "meta": {"OBJECT_NAME": "SKYSAT-C1", "OBJECT_ID": "2016-040C", "EPOCH": "2025-12-19T13:49:47.529120", "MEAN_MOTION": 15.32708118, "ECCENTRICITY": 0.000158, "INCLINATION": 96.9813, "RA_OF_ASC_NODE": 30.2048, "ARG_OF_PERICENTER": 351.0695, "MEAN_ANOMALY": 9.052, "EPHEMERIS_TYPE": 0, "CLASSIFICATION_TYPE": "U", "NORAD_CAT_ID": 41601, "ELEMENT_SET_NO": 999, "REV_AT_EPOCH": 53032, "BSTAR": 0.00021842, "MEAN_MOTION_DOT": 6.827e-05, "MEAN_MOTION_DDOT": 0}, "tle": {"line1": "1 41601U 16040C   25353.57624455  .00006827  00000+0  21842-3 0  9991", "line2": "2 41601  96.9813  30.2048 0001580 351.0695   9.0520 15.32708118530325"}}, "geometry": {"type": "Point", "coordinates": [43.59504053303401, -60.31767805856657]}}, {"type": "Feature", "properties": {"norad_id": 41603, "name": "LAPAN-A3", "group": "resource", "lat": 51.805455244615594, "lon": -17.291219405970345, "alt_km": 468.3892783177607, "timestamp": "2025-12-20T14:38:01.615867+00:00", "meta": {"OBJECT_NAME": "LAPAN-A3", "OBJECT_ID": "2016-040E", "EPOCH": "2025-12-20T06:33:57.368160", "MEAN_MOTION": 15.31608118, "ECCENTRICITY": 0.00089586, "INCLINATION": 97.1424, "RA_OF_ASC_NODE": 351.5558, "ARG_OF_PERICENTER": 303.2976, "MEAN_ANOMALY": 56.7407, "EPHEMERIS_TYPE": 0, "CLASSIFICATION_TYPE": "U", "NORAD_CAT_ID": 41603, "ELEMENT_SET_NO": 999, "REV_AT_EPOCH": 52741, "BSTAR": 9.2724034e-05, "MEAN_MOTION_DOT": 2.759e-05, "MEAN_MOTION_DDOT": 0}, "tle": {"line1": "1 41603U 16040E   25354.27358065  .00002759  00000+0  92724-4 0  9990", "line2": "2 41603  97.1424 351.5558 0008958 303.2976  56.7407 15.31608118527417"}}, "geometry": {"type": "Point", "coordinates": [-17.291219405970345, 51.805455244615594]}}, {"type": "Feature", "properties": {"norad_id": 41604, "name": "BIROS", "group": "resource", "lat": 56.418632730578906, "lon": -142.8524197329271, "alt_km": 287.17372179764516, "timestamp": "2025-12-20T14:38:01.615877+00:00", "meta": {"OBJECT_NAME": "BIROS", "OBJECT_ID": "2016-040F", "EPOCH": "2025-12-20T02:03:19.975968", "MEAN_MOTION": 15.92485134, "ECCENTRICITY": 0.00035333, "INCLINATION": 97.0689, "RA_OF_ASC_NODE": 25.8273, "ARG_OF_PERICENTER": 132.86, "MEAN_ANOMALY": 227.2973, "EPHEMERIS_TYPE": 0, "CLASSIFICATION_TYPE": "U", "NORAD_CAT_ID": 41604, "ELEMENT_SET_NO": 999, "REV_AT_EPOCH": 52989, "BSTAR": 0.00048137558, "MEAN_MOTION_DOT": 0.00161911, "MEAN_MOTION_DDOT": 1.1712005e-05}, "tle": {"line1": "1 41604U 16040F   25354.08564787  .00161911  11712-4  48138-3 0  9992", "line2": "2 41604  97.0689  25.8273 0003533 132.8600 227.2973 15.92485134529894"}}, "geometry": {"type": "Point", "coordinates": [-142.8524197329271, 56.418632730578906]}}, {"type": "Feature", "properties": {"norad_id": 41727, "name": "GAOFEN-3", "group": "resource", "lat": -2.186023698053337, "lon": 179.75298067899712, "alt_km": 754.9443590340588, "timestamp": "2025-12-20T14:38:01.615888+00:00", "meta": {"OBJECT_NAME": "GAOFEN-3", "OBJECT_ID": "2016-049A", "EPOCH": "2025-12-20T07:07:55.010208", "MEAN_MOTION": 14.4221557, "ECCENTRICITY": 0.00012542, "INCLINATION": 98.4031, "RA_OF_ASC_NODE": 359.7685, "ARG_OF_PERICENTER": 57.3396, "MEAN_ANOMALY": 302.7915, "EPHEMERIS_TYPE": 0, "CLASSIFICATION_TYPE": "U", "NORAD_CAT_ID": 41727, "ELEMENT_SET_NO": 999, "REV_AT_EPOCH": 49286, "BSTAR": 4.4302391e-05, "MEAN_MOTION_DOT": 1.03e-06, "MEAN_MOTION_DDOT": 0}, "tle": {"line1": "1 41727U 16049A   25354.29716447  .00000103  00000+0  44302-4 0  9990", "line2": "2 41727  98.4031 359.7685 0001254  57.3396 302.7915 14.42215570492863"}}, "geometry": {"type": "Point", "coordinates": [179.75298067899712, -2.186023698053337]}}, {"type": "Feature", "properties": {"norad_id": 41771, "name": "SKYSAT-C4", "group": "resource", "lat": 31.038891419614046, "lon": -156.38333130793248, "alt_km": 435.90863485394493, "timestamp": "2025-12-20T14:38:01.615898+00:00", "meta": {"OBJECT_NAME": "SKYSAT-C4", "OBJECT_ID": "2016-058B", "EPOCH": "2025-12-20T01:32:08.921760", "MEAN_MOTION": 15.42446541, "ECCENTRICITY": 0.00021513, "INCLINATION": 96.936, "RA_OF_ASC_NODE": 18.8961, "ARG_OF_PERICENTER": 129.4309, "MEAN_ANOMALY": 230.7131, "EPHEMERIS_TYPE": 0, "CLASSIFICATION_TYPE": "U", "NORAD_CAT_ID": 41771, "ELEMENT_SET_NO": 999, "REV_AT_EPOCH": 51780, "BSTAR": 0.00023477482, "MEAN_MOTION_DOT": 0.00010079, "MEAN_MOTION_DDOT": 0}, "tle": {"line1": "1 41771U 16058B   25354.06399215  .00010079  00000+0  23477-3 0  9996", "line2": "2 41771  96.9360  18.8961 0002151 129.4309 230.7131 15.42446541517809"}}, "geometry": {"type": "Point", "coordinates": [-156.38333130793248, 31.038891419614046]}}, {"type": "Feature", "properties": {"norad_id": 41772, "name": "SKYSAT-C5", "group": "resource", "lat": -9.630446984120683, "lon": -143.1745078718261, "alt_km": 467.08760287569476, "timestamp": "2025-12-20T14:38:01.615909+00:00", "meta": {"OBJECT_NAME": "SKYSAT-C5", "OBJECT_ID": "2016-058C", "EPOCH": "2025-12-20T02:51:02.337120", "MEAN_MOTION": 15.34000367, "ECCENTRICITY": 0.00037831, "INCLINATION": 97.0747, "RA_OF_ASC_NODE": 37.5626, "ARG_OF_PERICENTER": 257.0702, "MEAN_ANOMALY": 103.0119, "EPHEMERIS_TYPE": 0, "CLASSIFICATION_TYPE": "U", "NORAD_CAT_ID": 41772, "ELEMENT_SET_NO": 999, "REV_AT_EPOCH": 51629, "BSTAR": 0.0001953125, "MEAN_MOTION_DOT": 6.351e-05, "MEAN_MOTION_DDOT": 0}, "tle": {"line1": "1 41772U 16058C   25354.11877705  .00006351  00000+0  19531-3 0  9992", "line2": "2 41772  97.0747  37.5626 0003783 257.0702 103.0119 15.34000367516297"}}, "geometry": {"type": "Point", "coordinates": [-143.1745078718261, -9.630446984120683]}}, {"type": "Feature", "properties": {"norad_id": 41773, "name": "SKYSAT-C2", "group": "resource", "lat": -67.15910061725727, "lon": 35.85247482662234, "alt_km": 460.58145124490966, "timestamp": "2025-12-20T14:38:01.615919+00:00", "meta": {"OBJECT_NAME": "SKYSAT-C2", "OBJECT_ID": "2016-058D", "EPOCH": "2025-12-20T00:52:16.860864", "MEAN_MOTION": 15.37425568, "ECCENTRICITY": 0.00034481, "INCLINATION": 97.035, "RA_OF_ASC_NODE": 18.2542, "ARG_OF_PERICENTER": 14.0685, "MEAN_ANOMALY": 346.0656, "EPHEMERIS_TYPE": 0, "CLASSIFICATION_TYPE": "U", "NORAD_CAT_ID": 41773, "ELEMENT_SET_NO": 999, "REV_AT_EPOCH": 51748, "BSTAR": 0.0002251688, "MEAN_MOTION_DOT": 8.187e-05, "MEAN_MOTION_DDOT": 0}, "tle": {"line1": "1 41773U 16058D   25354.03630626  .00008187  00000+0  22517-3 0  9990", "line2": "2 41773  97.0350  18.2542 0003448  14.0685 346.0656 15.37425568517484"}}, "geometry": {"type": "Point", "coordinates": [35.85247482662234, -67.15910061725727]}}, {"type": "Feature", "properties": {"norad_id": 41774, "name": "SKYSAT-C3", "group": "resource", "lat": -36.374580177058476, "lon": 33.12921385964056, "alt_km": 439.85973145787193, "timestamp": "2025-12-20T14:38:01.615929+00:00", "meta": {"OBJECT_NAME": "SKYSAT-C3", "OBJECT_ID": "2016-058E", "EPOCH": "2025-12-20T02:21:14.910336", "MEAN_MOTION": 15.44645459, "ECCENTRICITY": 0.00019178, "INCLINATION": 96.9286, "RA_OF_ASC_NODE": 27.5022, "ARG_OF_PERICENTER": 107.9248, "MEAN_ANOMALY": 252.2211, "EPHEMERIS_TYPE": 0, "CLASSIFICATION_TYPE": "U", "NORAD_CAT_ID": 41774, "ELEMENT_SET_NO": 999, "REV_AT_EPOCH": 51839, "BSTAR": 0.00028292619, "MEAN_MOTION_DOT": 0.00013104, "MEAN_MOTION_DDOT": 0}, "tle": {"line1": "1 41774U 16058E   25354.09808924  .00013104  00000+0  28293-3 0  9997", "line2": "2 41774  96.9286  27.5022 0001917 107.9248 252.2211 15.44645459518390"}}, "geometry": {"type": "Point", "coordinates": [33.12921385964056, -36.374580177058476]}}]}